LEMUR-2-DEMBITZ         
1 42842U 17042T   26068.47492167  .00020231  00000+0  76561-3 0  9991
2 42842  97.3807 250.9241 0006961  17.1421 343.0051 15.26947128473114
STARLINK-32892          
1 62893U 25024Q   26068.09985829  .00028717  00000+0  10489-2 0  9991
2 62893  43.0009 328.8735 0000147 240.2675 119.8162 15.27584036 62175
