[{"OBJECT_NAME":"LEMUR-2-DEMBITZ","OBJECT_ID":"2017-042T","EPOCH":"2026-03-09T11:23:53.232288","MEAN_MOTION":15.26947128,"ECCENTRICITY":0.00069617,"INCLINATION":97.3807,"RA_OF_ASC_NODE":250.9241,"ARG_OF_PERICENTER":17.1421,"MEAN_ANOMALY":343.0051,"EPHEMERIS_TYPE":0,"CLASSIFICATION_TYPE":"U","NORAD_CAT_ID":42842,"ELEMENT_SET_NO":999,"REV_AT_EPOCH":47311,"BSTAR":0.00076560825,"MEAN_MOTION_DOT":0.00020231,"MEAN_MOTION_DDOT":0},{"OBJECT_NAME":"STARLINK-32892","OBJECT_ID":"2025-024Q","EPOCH":"2026-03-09T02:23:47.756256","MEAN_MOTION":15.27584036,"ECCENTRICITY":1.473e-5,"INCLINATION":43.0009,"RA_OF_ASC_NODE":328.8735,"ARG_OF_PERICENTER":240.2675,"MEAN_ANOMALY":119.8162,"EPHEMERIS_TYPE":0,"CLASSIFICATION_TYPE":"U","NORAD_CAT_ID":62893,"ELEMENT_SET_NO":999,"REV_AT_EPOCH":6217,"BSTAR":0.0010488869,"MEAN_MOTION_DOT":0.00028717,"MEAN_MOTION_DDOT":0}]
